CCSDS_OMM_VERS = 2.0
CREATION_DATE  = 
ORIGINATOR     = 

OBJECT_NAME    = YOTSUBA-KULOVER
OBJECT_ID      = 1998-067XN
CENTER_NAME    = EARTH
REF_FRAME      = TEME
TIME_SYSTEM    = UTC
MEAN_ELEMENT_THEORY = SGP/SGP4

EPOCH          = 2026-03-05T02:05:11.260032
MEAN_MOTION    = 15.78427087
ECCENTRICITY   = .0006035
INCLINATION    = 51.6207
RA_OF_ASC_NODE = 81.1290
ARG_OF_PERICENTER = 39.2670
MEAN_ANOMALY   = 320.8767

EPHEMERIS_TYPE = 0
CLASSIFICATION_TYPE = U
NORAD_CAT_ID   = 65941
ELEMENT_SET_NO = 999
REV_AT_EPOCH   = 2277
BSTAR          = .11365E-2
MEAN_MOTION_DOT = .2054E-2
MEAN_MOTION_DDOT = 0

CCSDS_OMM_VERS = 2.0
CREATION_DATE  = 
ORIGINATOR     = 

OBJECT_NAME    = BOTAN
OBJECT_ID      = 1998-067XP
CENTER_NAME    = EARTH
REF_FRAME      = TEME
TIME_SYSTEM    = UTC
MEAN_ELEMENT_THEORY = SGP/SGP4

EPOCH          = 2026-03-03T07:18:10.975680
MEAN_MOTION    = 16.26065139
ECCENTRICITY   = .00029265
INCLINATION    = 51.6040
RA_OF_ASC_NODE = 82.5602
ARG_OF_PERICENTER = 46.9281
MEAN_ANOMALY   = 313.1984

EPHEMERIS_TYPE = 0
CLASSIFICATION_TYPE = U
NORAD_CAT_ID   = 65942
ELEMENT_SET_NO = 999
REV_AT_EPOCH   = 2259
BSTAR          = .14502781E-2
MEAN_MOTION_DOT = .4760636E-1
MEAN_MOTION_DDOT = .12040774E-4

CCSDS_OMM_VERS = 2.0
CREATION_DATE  = 
ORIGINATOR     = 

OBJECT_NAME    = E-KAGAKU-1
OBJECT_ID      = 1998-067XQ
CENTER_NAME    = EARTH
REF_FRAME      = TEME
TIME_SYSTEM    = UTC
MEAN_ELEMENT_THEORY = SGP/SGP4

EPOCH          = 2026-03-05T02:10:16.607136
MEAN_MOTION    = 15.78150178
ECCENTRICITY   = .0006201
INCLINATION    = 51.6240
RA_OF_ASC_NODE = 81.1707
ARG_OF_PERICENTER = 45.9109
MEAN_ANOMALY   = 314.2402

EPHEMERIS_TYPE = 0
CLASSIFICATION_TYPE = U
NORAD_CAT_ID   = 65943
ELEMENT_SET_NO = 999
REV_AT_EPOCH   = 2277
BSTAR          = .11329E-2
MEAN_MOTION_DOT = .202153E-2
MEAN_MOTION_DDOT = 0

CCSDS_OMM_VERS = 2.0
CREATION_DATE  = 
ORIGINATOR     = 

OBJECT_NAME    = HRC MONOBLOCK CAMERA
OBJECT_ID      = 1998-067XR
CENTER_NAME    = EARTH
REF_FRAME      = TEME
TIME_SYSTEM    = UTC
MEAN_ELEMENT_THEORY = SGP/SGP4

EPOCH          = 2026-03-05T02:14:55.020768
MEAN_MOTION    = 15.61628247
ECCENTRICITY   = .0003467
INCLINATION    = 51.6268
RA_OF_ASC_NODE = 88.7196
ARG_OF_PERICENTER = 69.7070
MEAN_ANOMALY   = 290.4296

EPHEMERIS_TYPE = 0
CLASSIFICATION_TYPE = U
NORAD_CAT_ID   = 66052
ELEMENT_SET_NO = 999
REV_AT_EPOCH   = 2167
BSTAR          = .63821E-3
MEAN_MOTION_DOT = .55878E-3
MEAN_MOTION_DDOT = 0

CCSDS_OMM_VERS = 2.0
CREATION_DATE  = 
ORIGINATOR     = 

OBJECT_NAME    = HTV-X1
OBJECT_ID      = 2025-241A
CENTER_NAME    = EARTH
REF_FRAME      = TEME
TIME_SYSTEM    = UTC
MEAN_ELEMENT_THEORY = SGP/SGP4

EPOCH          = 2026-03-04T20:48:04.408416
MEAN_MOTION    = 15.48447334
ECCENTRICITY   = .0008177
INCLINATION    = 51.6315
RA_OF_ASC_NODE = 96.2009
ARG_OF_PERICENTER = 157.5272
MEAN_ANOMALY   = 202.6076

EPHEMERIS_TYPE = 0
CLASSIFICATION_TYPE = U
NORAD_CAT_ID   = 66174
ELEMENT_SET_NO = 999
REV_AT_EPOCH   = 55546
BSTAR          = .17477E-3
MEAN_MOTION_DOT = .9014E-4
MEAN_MOTION_DDOT = 0

CCSDS_OMM_VERS = 2.0
CREATION_DATE  = 
ORIGINATOR     = 

OBJECT_NAME    = SZ-21 MODULE
OBJECT_ID      = 2025-246C
CENTER_NAME    = EARTH
REF_FRAME      = TEME
TIME_SYSTEM    = UTC
MEAN_ELEMENT_THEORY = SGP/SGP4

EPOCH          = 2026-03-05T04:05:15.475200
MEAN_MOTION    = 15.68139607
ECCENTRICITY   = .0001469
INCLINATION    = 41.4734
RA_OF_ASC_NODE = 231.1730
ARG_OF_PERICENTER = 290.3140
MEAN_ANOMALY   = 69.7543

EPHEMERIS_TYPE = 0
CLASSIFICATION_TYPE = U
NORAD_CAT_ID   = 66515
ELEMENT_SET_NO = 999
REV_AT_EPOCH   = 1736
BSTAR          = .35896E-3
MEAN_MOTION_DOT = .41059E-3
MEAN_MOTION_DDOT = 0

CCSDS_OMM_VERS = 2.0
CREATION_DATE  = 
ORIGINATOR     = 

OBJECT_NAME    = SHENZHOU-22
OBJECT_ID      = 2025-272A
CENTER_NAME    = EARTH
REF_FRAME      = TEME
TIME_SYSTEM    = UTC
MEAN_ELEMENT_THEORY = SGP/SGP4

EPOCH          = 2026-03-04T21:58:42.572928
MEAN_MOTION    = 15.60409426
ECCENTRICITY   = .0006804
INCLINATION    = 41.4655
RA_OF_ASC_NODE = 237.2033
ARG_OF_PERICENTER = 243.7896
MEAN_ANOMALY   = 116.2243

EPHEMERIS_TYPE = 0
CLASSIFICATION_TYPE = U
NORAD_CAT_ID   = 66645
ELEMENT_SET_NO = 999
REV_AT_EPOCH   = 26843
BSTAR          = .26479E-3
MEAN_MOTION_DOT = .22117E-3
MEAN_MOTION_DDOT = 0

CCSDS_OMM_VERS = 2.0
CREATION_DATE  = 
ORIGINATOR     = 

OBJECT_NAME    = SOYUZ-MS 28
OBJECT_ID      = 2025-275A
CENTER_NAME    = EARTH
REF_FRAME      = TEME
TIME_SYSTEM    = UTC
MEAN_ELEMENT_THEORY = SGP/SGP4

EPOCH          = 2026-03-04T20:48:04.408416
MEAN_MOTION    = 15.48447334
ECCENTRICITY   = .0008177
INCLINATION    = 51.6315
RA_OF_ASC_NODE = 96.2009
ARG_OF_PERICENTER = 157.5272
MEAN_ANOMALY   = 202.6076

EPHEMERIS_TYPE = 0
CLASSIFICATION_TYPE = U
NORAD_CAT_ID   = 66664
ELEMENT_SET_NO = 999
REV_AT_EPOCH   = 55558
BSTAR          = .17477E-3
MEAN_MOTION_DOT = .9014E-4
MEAN_MOTION_DDOT = 0

CCSDS_OMM_VERS = 2.0
CREATION_DATE  = 
ORIGINATOR     = 

OBJECT_NAME    = DUPLEX
OBJECT_ID      = 1998-067XS
CENTER_NAME    = EARTH
REF_FRAME      = TEME
TIME_SYSTEM    = UTC
MEAN_ELEMENT_THEORY = SGP/SGP4

EPOCH          = 2026-03-04T09:12:56.728224
MEAN_MOTION    = 15.55826494
ECCENTRICITY   = .00020746
INCLINATION    = 51.6284
RA_OF_ASC_NODE = 95.9816
ARG_OF_PERICENTER = 91.8511
MEAN_ANOMALY   = 268.2718

EPHEMERIS_TYPE = 0
CLASSIFICATION_TYPE = U
NORAD_CAT_ID   = 66906
ELEMENT_SET_NO = 999
REV_AT_EPOCH   = 1430
BSTAR          = .60283877E-3
MEAN_MOTION_DOT = .42212E-3
MEAN_MOTION_DDOT = 0

CCSDS_OMM_VERS = 2.0
CREATION_DATE  = 
ORIGINATOR     = 

OBJECT_NAME    = ISS OBJECT XT
OBJECT_ID      = 1998-067XT
CENTER_NAME    = EARTH
REF_FRAME      = TEME
TIME_SYSTEM    = UTC
MEAN_ELEMENT_THEORY = SGP/SGP4

EPOCH          = 2026-03-05T01:24:57.565440
MEAN_MOTION    = 15.67662291
ECCENTRICITY   = .0004673
INCLINATION    = 51.6250
RA_OF_ASC_NODE = 89.2282
ARG_OF_PERICENTER = 49.4593
MEAN_ANOMALY   = 310.6809

EPHEMERIS_TYPE = 0
CLASSIFICATION_TYPE = U
NORAD_CAT_ID   = 66907
ELEMENT_SET_NO = 999
REV_AT_EPOCH   = 1445
BSTAR          = .13459E-2
MEAN_MOTION_DOT = .152406E-2
MEAN_MOTION_DDOT = 0

CCSDS_OMM_VERS = 2.0
CREATION_DATE  = 
ORIGINATOR     = 

OBJECT_NAME    = ISS OBJECT XU
OBJECT_ID      = 1998-067XU
CENTER_NAME    = EARTH
REF_FRAME      = TEME
TIME_SYSTEM    = UTC
MEAN_ELEMENT_THEORY = SGP/SGP4

EPOCH          = 2026-03-04T07:01:15.985632
MEAN_MOTION    = 15.67514512
ECCENTRICITY   = .0004676
INCLINATION    = 51.6245
RA_OF_ASC_NODE = 93.1068
ARG_OF_PERICENTER = 47.0078
MEAN_ANOMALY   = 313.1309

EPHEMERIS_TYPE = 0
CLASSIFICATION_TYPE = U
NORAD_CAT_ID   = 66908
ELEMENT_SET_NO = 999
REV_AT_EPOCH   = 1433
BSTAR          = .16844747E-2
MEAN_MOTION_DOT = .190633E-2
MEAN_MOTION_DDOT = 0

CCSDS_OMM_VERS = 2.0
CREATION_DATE  = 
ORIGINATOR     = 

OBJECT_NAME    = SILVERSAT
OBJECT_ID      = 1998-067XV
CENTER_NAME    = EARTH
REF_FRAME      = TEME
TIME_SYSTEM    = UTC
MEAN_ELEMENT_THEORY = SGP/SGP4

EPOCH          = 2026-03-05T01:35:59.450784
MEAN_MOTION    = 15.70274385
ECCENTRICITY   = .0005454
INCLINATION    = 51.6240
RA_OF_ASC_NODE = 88.5241
ARG_OF_PERICENTER = 48.4594
MEAN_ANOMALY   = 311.6871

EPHEMERIS_TYPE = 0
CLASSIFICATION_TYPE = U
NORAD_CAT_ID   = 66909
ELEMENT_SET_NO = 999
REV_AT_EPOCH   = 1446
BSTAR          = .15169E-2
MEAN_MOTION_DOT = .19237E-2
MEAN_MOTION_DDOT = 0

