YOTSUBA-KULOVER         
1 65941U 98067XN  26064.08693588  .00205400  00000+0  11365-2 0  9998
2 65941  51.6207  81.1290 0006035  39.2670 320.8767 15.78427087 22770
BOTAN                   
1 65942U 98067XP  26062.30429370  .04760636  12041-4  14503-2 0  9999
2 65942  51.6040  82.5602 0002926  46.9281 313.1984 16.26065139 22592
E-KAGAKU-1              
1 65943U 98067XQ  26064.09046999  .00202153  00000+0  11329-2 0  9991
2 65943  51.6240  81.1707 0006201  45.9109 314.2402 15.78150178 22775
HRC MONOBLOCK CAMERA    
1 66052U 98067XR  26064.09369237  .00055878  00000+0  63821-3 0  9991
2 66052  51.6268  88.7196 0003467  69.7070 290.4296 15.61628247 21677
HTV-X1                  
1 66174U 25241A   26063.86671769  .00009014  00000+0  17477-3 0  9997
2 66174  51.6315  96.2009 0008177 157.5272 202.6076 15.48447334555466
SZ-21 MODULE            
1 66515U 25246C   26064.17031800  .00041059  00000+0  35896-3 0  9992
2 66515  41.4734 231.1730 0001469 290.3140  69.7543 15.68139607 17361
SHENZHOU-22             
1 66645U 25272A   26063.91577052  .00022117  00000+0  26479-3 0  9991
2 66645  41.4655 237.2033 0006804 243.7896 116.2243 15.60409426268430
SOYUZ-MS 28             
1 66664U 25275A   26063.86671769  .00009014  00000+0  17477-3 0  9998
2 66664  51.6315  96.2009 0008177 157.5272 202.6076 15.48447334555583
DUPLEX                  
1 66906U 98067XS  26063.38398991  .00042212  00000+0  60284-3 0  9997
2 66906  51.6284  95.9816 0002074  91.8511 268.2718 15.55826494 14302
ISS OBJECT XT           
1 66907U 98067XT  26064.05899960  .00152406  00000+0  13459-2 0  9993
2 66907  51.6250  89.2282 0004673  49.4593 310.6809 15.67662291 14450
ISS OBJECT XU           
1 66908U 98067XU  26063.29254613  .00190633  00000+0  16845-2 0  9995
2 66908  51.6245  93.1068 0004676  47.0078 313.1309 15.67514512 14338
SILVERSAT               
1 66909U 98067XV  26064.06666031  .00192370  00000+0  15169-2 0  9991
2 66909  51.6240  88.5241 0005454  48.4594 311.6871 15.70274385 14464
